LANDSAT 9               
1 49260U 21088A   23275.08113348  .00000797  00000+0  18710-3 0  9999
2 49260  98.2201 343.6454 0001211  82.0640 278.0696 14.57095450106958
